{"type": "FeatureCollection", "features": [ {"type": "Feature", "properties": {"norad_id": 66563, "name": "STARLINK-35437", "group": "last-30-days", "lat": 18.13758408412673, "lon": -122.7808302649639, "alt_km": 407.8150902801035, "timestamp": "2025-12-20T03:42:46.118168+00:00", "meta": {"OBJECT_NAME": "STARLINK-35437", "OBJECT_ID": "2025-268G", "EPOCH": "2025-12-19T14:41:52.941984", "MEAN_MOTION": 15.51028655, "ECCENTRICITY": 0.0003497, "INCLINATION": 42.9995, "RA_OF_ASC_NODE": 80.9781, "ARG_OF_PERICENTER": 59.3053, "MEAN_ANOMALY": 300.8151, "EPHEMERIS_TYPE": 0, "CLASSIFICATION_TYPE": "U", "NORAD_CAT_ID": 66563, "ELEMENT_SET_NO": 999, "REV_AT_EPOCH": 569, "BSTAR": 0.016026, "MEAN_MOTION_DOT": 0.01053473, "MEAN_MOTION_DDOT": 0}, "tle": {"line1": "1 66563U 25268G   25353.61241831  .01053473  00000+0  16026-1 0  9991", "line2": "2 66563  42.9995  80.9781 0003497  59.3053 300.8151 15.51028655  5693"}}, "geometry": {"type": "Point", "coordinates": [-122.7808302649639, 18.13758408412673]}}, {"type": "Feature", "properties": {"norad_id": 66564, "name": "STARLINK-35358", "group": "last-30-days", "lat": 16.963110884854164, "lon": -121.30777313877692, "alt_km": 408.39241156168646, "timestamp": "2025-12-20T03:42:46.118179+00:00", "meta": {"OBJECT_NAME": "STARLINK-35358", "OBJECT_ID": "2025-268H", "EPOCH": "2025-12-19T14:41:22.868736", "MEAN_MOTION": 15.5102121, "ECCENTRICITY": 0.0002353, "INCLINATION": 43.0039, "RA_OF_ASC_NODE": 80.9756, "ARG_OF_PERICENTER": 55.2616, "MEAN_ANOMALY": 304.8465, "EPHEMERIS_TYPE": 0, "CLASSIFICATION_TYPE": "U", "NORAD_CAT_ID": 66564, "ELEMENT_SET_NO": 999, "REV_AT_EPOCH": 569, "BSTAR": 0.014889, "MEAN_MOTION_DOT": 0.00971033, "MEAN_MOTION_DDOT": 0}, "tle": {"line1": "1 66564U 25268H   25353.61207024  .00971033  00000+0  14889-1 0  9993", "line2": "2 66564  43.0039  80.9756 0002353  55.2616 304.8465 15.51021210  5699"}}, "geometry": {"type": "Point", "coordinates": [-121.30777313877692, 16.963110884854164]}}, {"type": "Feature", "properties": {"norad_id": 66565, "name": "STARLINK-35893", "group": "last-30-days", "lat": 15.972876248213671, "lon": -120.09412653354836, "alt_km": 410.2310691724351, "timestamp": "2025-12-20T03:42:46.118189+00:00", "meta": {"OBJECT_NAME": "STARLINK-35893", "OBJECT_ID": "2025-268J", "EPOCH": "2025-12-19T14:40:50.958624", "MEAN_MOTION": 15.51016208, "ECCENTRICITY": 0.000203, "INCLINATION": 43.0036, "RA_OF_ASC_NODE": 80.972, "ARG_OF_PERICENTER": 50.3117, "MEAN_ANOMALY": 309.7922, "EPHEMERIS_TYPE": 0, "CLASSIFICATION_TYPE": "U", "NORAD_CAT_ID": 66565, "ELEMENT_SET_NO": 999, "REV_AT_EPOCH": 569, "BSTAR": 0.0068336, "MEAN_MOTION_DOT": 0.00430014, "MEAN_MOTION_DDOT": 0}, "tle": {"line1": "1 66565U 25268J   25353.61170091  .00430014  00000+0  68336-2 0  9993", "line2": "2 66565  43.0036  80.9720 0002030  50.3117 309.7922 15.51016208  5695"}}, "geometry": {"type": "Point", "coordinates": [-120.09412653354836, 15.972876248213671]}}, {"type": "Feature", "properties": {"norad_id": 66566, "name": "STARLINK-35871", "group": "last-30-days", "lat": 15.409846378739482, "lon": -119.41029969543801, "alt_km": 413.4695263389858, "timestamp": "2025-12-20T03:42:46.118200+00:00", "meta": {"OBJECT_NAME": "STARLINK-35871", "OBJECT_ID": "2025-268K", "EPOCH": "2025-12-19T13:07:38.995968", "MEAN_MOTION": 15.50761658, "ECCENTRICITY": 0.0003183, "INCLINATION": 43.0002, "RA_OF_ASC_NODE": 81.3513, "ARG_OF_PERICENTER": 298.1576, "MEAN_ANOMALY": 61.8963, "EPHEMERIS_TYPE": 0, "CLASSIFICATION_TYPE": "U", "NORAD_CAT_ID": 66566, "ELEMENT_SET_NO": 999, "REV_AT_EPOCH": 568, "BSTAR": 0.0016703, "MEAN_MOTION_DOT": 0.00099562, "MEAN_MOTION_DDOT": 0}, "tle": {"line1": "1 66566U 25268K   25353.54697912  .00099562  00000+0  16703-2 0  9992", "line2": "2 66566  43.0002  81.3513 0003183 298.1576  61.8963 15.50761658  5680"}}, "geometry": {"type": "Point", "coordinates": [-119.41029969543801, 15.409846378739482]}}, {"type": "Feature", "properties": {"norad_id": 66567, "name": "STARLINK-35825", "group": "last-30-days", "lat": 13.81372398583759, "lon": -117.51507047291224, "alt_km": 408.5716163819252, "timestamp": "2025-12-20T03:42:46.118210+00:00", "meta": {"OBJECT_NAME": "STARLINK-35825", "OBJECT_ID": "2025-268L", "EPOCH": "2025-12-19T14:39:50.540832", "MEAN_MOTION": 15.50905897, "ECCENTRICITY": 0.0006551, "INCLINATION": 43.0004, "RA_OF_ASC_NODE": 80.9669, "ARG_OF_PERICENTER": 206.3981, "MEAN_ANOMALY": 153.6546, "EPHEMERIS_TYPE": 0, "CLASSIFICATION_TYPE": "U", "NORAD_CAT_ID": 66567, "ELEMENT_SET_NO": 999, "REV_AT_EPOCH": 569, "BSTAR": 0.0027371, "MEAN_MOTION_DOT": 0.00165693, "MEAN_MOTION_DDOT": 0}, "tle": {"line1": "1 66567U 25268L   25353.61100163  .00165693  00000+0  27371-2 0  9990", "line2": "2 66567  43.0004  80.9669 0006551 206.3981 153.6546 15.50905897  5696"}}, "geometry": {"type": "Point", "coordinates": [-117.51507047291224, 13.81372398583759]}}, {"type": "Feature", "properties": {"norad_id": 66568, "name": "STARLINK-35803", "group": "last-30-days", "lat": 12.857348635665453, "lon": -116.3956790042939, "alt_km": 412.40336379725704, "timestamp": "2025-12-20T03:42:46.118223+00:00", "meta": {"OBJECT_NAME": "STARLINK-35803", "OBJECT_ID": "2025-268M", "EPOCH": "2025-12-19T13:06:40.927392", "MEAN_MOTION": 15.50770242, "ECCENTRICITY": 7.69e-05, "INCLINATION": 43.0025, "RA_OF_ASC_NODE": 81.3422, "ARG_OF_PERICENTER": 350.7956, "MEAN_ANOMALY": 9.289, "EPHEMERIS_TYPE": 0, "CLASSIFICATION_TYPE": "U", "NORAD_CAT_ID": 66568, "ELEMENT_SET_NO": 999, "REV_AT_EPOCH": 568, "BSTAR": 0.0024142, "MEAN_MOTION_DOT": 0.00144926, "MEAN_MOTION_DDOT": 0}, "tle": {"line1": "1 66568U 25268M   25353.54630703  .00144926  00000+0  24142-2 0  9990", "line2": "2 66568  43.0025  81.3422 0000769 350.7956   9.2890 15.50770242  5684"}}, "geometry": {"type": "Point", "coordinates": [-116.3956790042939, 12.857348635665453]}}, {"type": "Feature", "properties": {"norad_id": 66569, "name": "STARLINK-35835", "group": "last-30-days", "lat": 10.717854364649549, "lon": -113.94575413872563, "alt_km": 408.75471578513316, "timestamp": "2025-12-20T03:42:46.118234+00:00", "meta": {"OBJECT_NAME": "STARLINK-35835", "OBJECT_ID": "2025-268N", "EPOCH": "2025-12-19T14:38:53.453760", "MEAN_MOTION": 15.51068809, "ECCENTRICITY": 0.000157, "INCLINATION": 43.0021, "RA_OF_ASC_NODE": 80.9616, "ARG_OF_PERICENTER": 180.5459, "MEAN_ANOMALY": 179.5399, "EPHEMERIS_TYPE": 0, "CLASSIFICATION_TYPE": "U", "NORAD_CAT_ID": 66569, "ELEMENT_SET_NO": 999, "REV_AT_EPOCH": 569, "BSTAR": 0.01158, "MEAN_MOTION_DOT": 0.0075028, "MEAN_MOTION_DDOT": 0}, "tle": {"line1": "1 66569U 25268N   25353.61034090  .00750280  00000+0  11580-1 0  9993", "line2": "2 66569  43.0021  80.9616 0001570 180.5459 179.5399 15.51068809  5695"}}, "geometry": {"type": "Point", "coordinates": [-113.94575413872563, 10.717854364649549]}}, {"type": "Feature", "properties": {"norad_id": 66570, "name": "STARLINK-35834", "group": "last-30-days", "lat": 9.537607117523692, "lon": -112.61897277705181, "alt_km": 410.5345801253925, "timestamp": "2025-12-20T03:42:46.118245+00:00", "meta": {"OBJECT_NAME": "STARLINK-35834", "OBJECT_ID": "2025-268P", "EPOCH": "2025-12-19T14:38:22.069824", "MEAN_MOTION": 15.5108495, "ECCENTRICITY": 0.0001238, "INCLINATION": 43.0034, "RA_OF_ASC_NODE": 80.9577, "ARG_OF_PERICENTER": 245.0703, "MEAN_ANOMALY": 115.0029, "EPHEMERIS_TYPE": 0, "CLASSIFICATION_TYPE": "U", "NORAD_CAT_ID": 66570, "ELEMENT_SET_NO": 999, "REV_AT_EPOCH": 569, "BSTAR": 0.0072465, "MEAN_MOTION_DOT": 0.00458871, "MEAN_MOTION_DDOT": 0}, "tle": {"line1": "1 66570U 25268P   25353.60997766  .00458871  00000+0  72465-2 0  9993", "line2": "2 66570  43.0034  80.9577 0001238 245.0703 115.0029 15.51084950  5697"}}, "geometry": {"type": "Point", "coordinates": [-112.61897277705181, 9.537607117523692]}}, {"type": "Feature", "properties": {"norad_id": 66571, "name": "STARLINK-35836", "group": "last-30-days", "lat": 7.8533936425468704, "lon": -110.7508284082617, "alt_km": 410.75783434628465, "timestamp": "2025-12-20T03:42:46.118255+00:00", "meta": {"OBJECT_NAME": "STARLINK-35836", "OBJECT_ID": "2025-268Q", "EPOCH": "2025-12-19T16:10:34.233312", "MEAN_MOTION": 15.51633645, "ECCENTRICITY": 0.0005519, "INCLINATION": 42.9986, "RA_OF_ASC_NODE": 80.5789, "ARG_OF_PERICENTER": 260.8901, "MEAN_ANOMALY": 99.1335, "EPHEMERIS_TYPE": 0, "CLASSIFICATION_TYPE": "U", "NORAD_CAT_ID": 66571, "ELEMENT_SET_NO": 999, "REV_AT_EPOCH": 570, "BSTAR": 0.0015343, "MEAN_MOTION_DOT": 0.00094296, "MEAN_MOTION_DDOT": 0}, "tle": {"line1": "1 66571U 25268Q   25353.67400733  .00094296  00000+0  15343-2 0  9993", "line2": "2 66571  42.9986  80.5789 0005519 260.8901  99.1335 15.51633645  5709"}}, "geometry": {"type": "Point", "coordinates": [-110.7508284082617, 7.8533936425468704]}}, {"type": "Feature", "properties": {"norad_id": 66572, "name": "STARLINK-35870", "group": "last-30-days", "lat": 7.377528017079437, "lon": -110.2274012844216, "alt_km": 411.14456782141224, "timestamp": "2025-12-20T03:42:46.118266+00:00", "meta": {"OBJECT_NAME": "STARLINK-35870", "OBJECT_ID": "2025-268R", "EPOCH": "2025-12-19T14:37:25.234176", "MEAN_MOTION": 15.50965919, "ECCENTRICITY": 0.0004838, "INCLINATION": 42.9991, "RA_OF_ASC_NODE": 80.9528, "ARG_OF_PERICENTER": 97.5171, "MEAN_ANOMALY": 262.6239, "EPHEMERIS_TYPE": 0, "CLASSIFICATION_TYPE": "U", "NORAD_CAT_ID": 66572, "ELEMENT_SET_NO": 999, "REV_AT_EPOCH": 569, "BSTAR": 0.0015119, "MEAN_MOTION_DOT": 0.00090663, "MEAN_MOTION_DDOT": 0}, "tle": {"line1": "1 66572U 25268R   25353.60931984  .00090663  00000+0  15119-2 0  9999", "line2": "2 66572  42.9991  80.9528 0004838  97.5171 262.6239 15.50965919  5697"}}, "geometry": {"type": "Point", "coordinates": [-110.2274012844216, 7.377528017079437]}}]}